LANDSAT 9               
1 49260U 21088A   23325.48470212  .00000454  00000+0  11085-3 0  9993
2 49260  98.2142  33.3627 0001225  90.2174 269.9165 14.57097186114301
